; Time to print!!!!!
; GCode created with FullControl - tell us what you're printing!
; info@fullcontrol.xyz or tag FullControlXYZ on Twitter/Instagram/LinkedIn/Reddit/TikTok
M83 ; relative extrusion
M140 S50 ; set bed temp and continue
M104 S210 ; set hotend temp and continue
M190 S50 ; set bed temp and wait
M109 S210 ; set hotend temp and wait
M106 S255 ; set fan speed
G0 F4800 X68 Y50 Z0.2
G1 F2400 X68.003947 Y49.874419 E0.004179
G1 X68.015771 Y49.749334 E0.004179
G1 X68.035425 Y49.625237 E0.004179
G1 X68.062834 Y49.50262 E0.004179
G1 X68.097887 Y49.381966 E0.004179
G1 X68.140447 Y49.263751 E0.004179
G1 X68.190346 Y49.148441 E0.004179
G1 X68.247387 Y49.036493 E0.004179
G1 X68.311344 Y48.928346 E0.004179
G1 X68.381966 Y48.824429 E0.004179
G1 X68.458974 Y48.725152 E0.004179
G1 X68.542063 Y48.630906 E0.004179
G1 X68.630906 Y48.542063 E0.004179
G1 X68.725152 Y48.458974 E0.004179
G1 X68.824429 Y48.381966 E0.004179
G1 X68.928346 Y48.311344 E0.004179
G1 X69.036493 Y48.247387 E0.004179
G1 X69.148441 Y48.190346 E0.004179
G1 X69.263751 Y48.140447 E0.004179
G1 X69.381966 Y48.097887 E0.004179
G1 X69.50262 Y48.062834 E0.004179
G1 X69.625237 Y48.035425 E0.004179
G1 X69.749334 Y48.015771 E0.004179
G1 X69.874419 Y48.003947 E0.004179
G1 X70 Y48 E0.004179
G1 X70.125581 Y48.003947 E0.004179
G1 X70.250666 Y48.015771 E0.004179
G1 X70.374763 Y48.035425 E0.004179
G1 X70.49738 Y48.062834 E0.004179
G1 X70.618034 Y48.097887 E0.004179
G1 X70.736249 Y48.140447 E0.004179
G1 X70.851559 Y48.190346 E0.004179
G1 X70.963507 Y48.247387 E0.004179
G1 X71.071654 Y48.311344 E0.004179
G1 X71.175571 Y48.381966 E0.004179
G1 X71.274848 Y48.458974 E0.004179
G1 X71.369094 Y48.542063 E0.004179
G1 X71.457937 Y48.630906 E0.004179
G1 X71.541026 Y48.725152 E0.004179
G1 X71.618034 Y48.824429 E0.004179
G1 X71.688656 Y48.928346 E0.004179
G1 X71.752613 Y49.036493 E0.004179
G1 X71.809654 Y49.148441 E0.004179
G1 X71.859553 Y49.263751 E0.004179
G1 X71.902113 Y49.381966 E0.004179
G1 X71.937166 Y49.50262 E0.004179
G1 X71.964575 Y49.625237 E0.004179
G1 X71.984229 Y49.749334 E0.004179
G1 X71.996053 Y49.874419 E0.004179
G1 X72 Y50 E0.004179
G1 X71.996053 Y50.125581 E0.004179
G1 X71.984229 Y50.250666 E0.004179
G1 X71.964575 Y50.374763 E0.004179
G1 X71.937166 Y50.49738 E0.004179
G1 X71.902113 Y50.618034 E0.004179
G1 X71.859553 Y50.736249 E0.004179
G1 X71.809654 Y50.851559 E0.004179
G1 X71.752613 Y50.963507 E0.004179
G1 X71.688656 Y51.071654 E0.004179
G1 X71.618034 Y51.175571 E0.004179
G1 X71.541026 Y51.274848 E0.004179
G1 X71.457937 Y51.369094 E0.004179
G1 X71.369094 Y51.457937 E0.004179
G1 X71.274848 Y51.541026 E0.004179
G1 X71.175571 Y51.618034 E0.004179
G1 X71.071654 Y51.688656 E0.004179
G1 X70.963507 Y51.752613 E0.004179
G1 X70.851559 Y51.809654 E0.004179
G1 X70.736249 Y51.859553 E0.004179
G1 X70.618034 Y51.902113 E0.004179
G1 X70.49738 Y51.937166 E0.004179
G1 X70.374763 Y51.964575 E0.004179
G1 X70.250666 Y51.984229 E0.004179
G1 X70.125581 Y51.996053 E0.004179
G1 X70 Y52 E0.004179
G1 X69.874419 Y51.996053 E0.004179
G1 X69.749334 Y51.984229 E0.004179
G1 X69.625237 Y51.964575 E0.004179
G1 X69.50262 Y51.937166 E0.004179
G1 X69.381966 Y51.902113 E0.004179
G1 X69.263751 Y51.859553 E0.004179
G1 X69.148441 Y51.809654 E0.004179
G1 X69.036493 Y51.752613 E0.004179
G1 X68.928346 Y51.688656 E0.004179
G1 X68.824429 Y51.618034 E0.004179
G1 X68.725152 Y51.541026 E0.004179
G1 X68.630906 Y51.457937 E0.004179
G1 X68.542063 Y51.369094 E0.004179
G1 X68.458974 Y51.274848 E0.004179
G1 X68.381966 Y51.175571 E0.004179
G1 X68.311344 Y51.071654 E0.004179
G1 X68.247387 Y50.963507 E0.004179
G1 X68.190346 Y50.851559 E0.004179
G1 X68.140447 Y50.736249 E0.004179
G1 X68.097887 Y50.618034 E0.004179
G1 X68.062834 Y50.49738 E0.004179
G1 X68.035425 Y50.374763 E0.004179
G1 X68.015771 Y50.250666 E0.004179
G1 X68.003947 Y50.125581 E0.004179
G1 X68 Y50 E0.004179
G1 X72 E0.133041
G1 X71.719421 Y50.992708 Z0.216667 E0.034316
G1 X70.985417 Y51.706792 Z0.233333 E0.034065
G1 X70 Y51.95625 Z0.25 E0.033814
G1 X69.029167 Y51.681533 Z0.266667 E0.033563
G1 X68.331097 Y50.963542 Z0.283333 E0.033311
G1 X68.0875 Y50 Z0.3 E0.03306
G1 X68.356356 Y49.051042 Z0.316667 E0.032809
G1 X69.058333 Y48.368985 Z0.333333 E0.032558
G1 X70 Y48.13125 Z0.35 E0.032307
G1 X70.927083 Y48.394245 Z0.366667 E0.032056
G1 X71.593126 Y49.080208 Z0.383333 E0.031805
G1 X71.825 Y50 Z0.4 E0.031554
G1 X71.567867 Y50.905208 Z0.416667 E0.031303
G1 X70.897917 Y51.555237 Z0.433333 E0.031052
G1 X70 Y51.78125 Z0.45 E0.030801
G1 X69.116667 Y51.529978 Z0.466667 E0.03055
G1 X68.482651 Y50.876042 Z0.483333 E0.030299
G1 X68.2625 Y50 Z0.5 E0.030048
G1 X68.50791 Y49.138542 Z0.516667 E0.029797
G1 X69.145833 Y48.52054 Z0.533333 E0.029546
G1 X70 Y48.30625 Z0.55 E0.029295
G1 X70.839583 Y48.545799 Z0.566667 E0.029044
G1 X71.441571 Y49.167708 Z0.583333 E0.028793
G1 X71.65 Y50 Z0.6 E0.028542
G1 X71.416312 Y50.817708 Z0.616667 E0.028291
G1 X70.810417 Y51.403683 Z0.633333 E0.02804
G1 X70 Y51.60625 Z0.65 E0.027789
G1 X69.204167 Y51.378424 Z0.666667 E0.027538
G1 X68.634206 Y50.788542 Z0.683333 E0.027287
G1 X68.4375 Y50 Z0.7 E0.027036
G1 X68.659465 Y49.226042 Z0.716667 E0.026785
G1 X69.233333 Y48.672094 Z0.733333 E0.026534
G1 X70 Y48.48125 Z0.75 E0.026283
G1 X70.752083 Y48.697353 Z0.766667 E0.026032
G1 X71.290017 Y49.255208 Z0.783333 E0.025781
G1 X71.475 Y50 Z0.8 E0.025531
G1 X71.264758 Y50.730208 Z0.816667 E0.02528
G1 X70.722917 Y51.252128 Z0.833333 E0.025029
G1 X70 Y51.43125 Z0.85 E0.024778
G1 X69.291667 Y51.226869 Z0.866667 E0.024527
G1 X68.78576 Y50.701042 Z0.883333 E0.024276
G1 X68.6125 Y50 Z0.9 E0.024025
G1 X68.811019 Y49.313542 Z0.916667 E0.023774
G1 X69.320833 Y48.823649 Z0.933333 E0.023523
G1 X70 Y48.65625 Z0.95 E0.023272
G1 X70.664583 Y48.848908 Z0.966667 E0.023021
G1 X71.138463 Y49.342708 Z0.983333 E0.02277
G1 X71.3 Y50 Z1 E0.022519
G1 X71.113203 Y50.642708 Z1.016667 E0.022268
G1 X70.635417 Y51.100574 Z1.033333 E0.022017
G1 X70 Y51.25625 Z1.05 E0.021766
G1 X69.379167 Y51.075315 Z1.066667 E0.021515
G1 X68.937315 Y50.613542 Z1.083333 E0.021264
G1 X68.7875 Y50 Z1.1 E0.021013
G1 X68.962574 Y49.401042 Z1.116667 E0.020762
G1 X69.408333 Y48.975203 Z1.133333 E0.020511
G1 X70 Y48.83125 Z1.15 E0.020261
G1 X70.577083 Y49.000462 Z1.166667 E0.02001
G1 X70.986908 Y49.430208 Z1.183333 E0.019759
G1 X71.125 Y50 Z1.2 E0.019508
G1 X70.961649 Y50.555208 Z1.216667 E0.019257
G1 X70.547917 Y50.94902 Z1.233333 E0.019006
G1 X70 Y51.08125 Z1.25 E0.018755
G1 X69.466667 Y50.92376 Z1.266667 E0.018504
G1 X69.088869 Y50.526042 Z1.283333 E0.018253
G1 X68.9625 Y50 Z1.3 E0.018003
G1 X69.114128 Y49.488542 Z1.316667 E0.017752
G1 X69.495833 Y49.126758 Z1.333333 E0.017501
G1 X70 Y49.00625 Z1.35 E0.01725
G1 X70.489583 Y49.152017 Z1.366667 E0.016999
G1 X70.835354 Y49.517708 Z1.383333 E0.016748
G1 X70.95 Y50 Z1.4 E0.016497
G1 X70.810095 Y50.467708 Z1.416667 E0.016247
G1 X70.460417 Y50.797465 Z1.433333 E0.015996
G1 X70 Y50.90625 Z1.45 E0.015745
G1 X69.554167 Y50.772206 Z1.466667 E0.015494
G1 X69.240424 Y50.438542 Z1.483333 E0.015243
G1 X69.1375 Y50 Z1.5 E0.014993
G1 X69.265683 Y49.576042 Z1.516667 E0.014742
G1 X69.583333 Y49.278312 Z1.533333 E0.014491
G1 X70 Y49.18125 Z1.55 E0.01424
G1 X70.402083 Y49.303571 Z1.566667 E0.013989
G1 X70.683799 Y49.605208 Z1.583333 E0.013739
G1 X70.775 Y50 Z1.6 E0.013488
G1 X70.65854 Y50.380208 Z1.616667 E0.013237
G1 X70.372917 Y50.645911 Z1.633333 E0.012987
G1 X70 Y50.73125 Z1.65 E0.012736
G1 X69.641667 Y50.620652 Z1.666667 E0.012485
G1 X69.391978 Y50.351042 Z1.683333 E0.012235
G1 X69.3125 Y50 Z1.7 E0.011984
G1 X69.417237 Y49.663542 Z1.716667 E0.011733
G1 X69.670833 Y49.429867 Z1.733333 E0.011483
G1 X70 Y49.35625 Z1.75 E0.011232
G1 X70.314583 Y49.455126 Z1.766667 E0.010982
G1 X70.532245 Y49.692708 Z1.783333 E0.010731
G1 X70.6 Y50 Z1.8 E0.010481
G1 X70.506986 Y50.292708 Z1.816667 E0.01023
G1 X70.285417 Y50.494356 Z1.833333 E0.00998
G1 X70 Y50.55625 Z1.85 E0.009729
G1 X69.729167 Y50.469097 Z1.866667 E0.009479
G1 X69.543532 Y50.263542 Z1.883333 E0.009229
G1 X69.4875 Y50 Z1.9 E0.008978
G1 X69.568792 Y49.751042 Z1.916667 E0.008728
G1 X69.758333 Y49.581421 Z1.933333 E0.008478
G1 X70 Y49.53125 Z1.95 E0.008228
G1 X70.227083 Y49.60668 Z1.966667 E0.007978
G1 X70.38069 Y49.780208 Z1.983333 E0.007728
G1 X70.425 Y50 Z2 E0.007478
G1 X70.355431 Y50.205208 Z2.016667 E0.007228
G1 X70.197917 Y50.342802 Z2.033333 E0.006978
G1 X70 Y50.38125 Z2.05 E0.006729
G1 X69.816667 Y50.317543 Z2.066667 E0.006479
G1 X69.695087 Y50.176042 Z2.083333 E0.00623
G1 X69.6625 Y50 Z2.1 E0.00598
G1 X69.720346 Y49.838542 Z2.116667 E0.005731
G1 X69.845833 Y49.732976 Z2.133333 E0.005482
G1 X70 Y49.70625 Z2.15 E0.005234
G1 X70.139583 Y49.758235 Z2.166667 E0.004985
G1 X70.229136 Y49.867708 Z2.183333 E0.004737
G1 X70.25 Y50 Z2.2 E0.004489
G0 F4800 X108 Z0.2
G0 X108.003947 Y49.874419
G0 X108.015771 Y49.749334
G0 X108.035425 Y49.625237
G0 X108.062834 Y49.50262
G0 X108.097887 Y49.381966
G0 X108.140447 Y49.263751
G0 X108.190346 Y49.148441
G0 X108.247387 Y49.036493
G0 X108.311344 Y48.928346
G0 X108.381966 Y48.824429
G0 X108.458974 Y48.725152
G0 X108.542063 Y48.630906
G0 X108.630906 Y48.542063
G0 X108.725152 Y48.458974
G0 X108.824429 Y48.381966
G0 X108.928346 Y48.311344
G0 X109.036493 Y48.247387
G0 X109.148441 Y48.190346
G0 X109.263751 Y48.140447
G0 X109.381966 Y48.097887
G0 X109.50262 Y48.062834
G0 X109.625237 Y48.035425
G0 X109.749334 Y48.015771
G0 X109.874419 Y48.003947
G0 X110 Y48
G0 X110.125581 Y48.003947
G0 X110.250666 Y48.015771
G0 X110.374763 Y48.035425
G0 X110.49738 Y48.062834
G0 X110.618034 Y48.097887
G0 X110.736249 Y48.140447
G0 X110.851559 Y48.190346
G0 X110.963507 Y48.247387
G0 X111.071654 Y48.311344
G0 X111.175571 Y48.381966
G0 X111.274848 Y48.458974
G0 X111.369094 Y48.542063
G0 X111.457937 Y48.630906
G0 X111.541026 Y48.725152
G0 X111.618034 Y48.824429
G0 X111.688656 Y48.928346
G0 X111.752613 Y49.036493
G0 X111.809654 Y49.148441
G0 X111.859553 Y49.263751
G0 X111.902113 Y49.381966
G0 X111.937166 Y49.50262
G0 X111.964575 Y49.625237
G0 X111.984229 Y49.749334
G0 X111.996053 Y49.874419
G0 X112 Y50
G0 X111.996053 Y50.125581
G0 X111.984229 Y50.250666
G0 X111.964575 Y50.374763
G0 X111.937166 Y50.49738
G0 X111.902113 Y50.618034
G0 X111.859553 Y50.736249
G0 X111.809654 Y50.851559
G0 X111.752613 Y50.963507
G0 X111.688656 Y51.071654
G0 X111.618034 Y51.175571
G0 X111.541026 Y51.274848
G0 X111.457937 Y51.369094
G0 X111.369094 Y51.457937
G0 X111.274848 Y51.541026
G0 X111.175571 Y51.618034
G0 X111.071654 Y51.688656
G0 X110.963507 Y51.752613
G0 X110.851559 Y51.809654
G0 X110.736249 Y51.859553
G0 X110.618034 Y51.902113
G0 X110.49738 Y51.937166
G0 X110.374763 Y51.964575
G0 X110.250666 Y51.984229
G0 X110.125581 Y51.996053
G0 X110 Y52
G0 X109.874419 Y51.996053
G0 X109.749334 Y51.984229
G0 X109.625237 Y51.964575
G0 X109.50262 Y51.937166
G0 X109.381966 Y51.902113
G0 X109.263751 Y51.859553
G0 X109.148441 Y51.809654
G0 X109.036493 Y51.752613
G0 X108.928346 Y51.688656
G0 X108.824429 Y51.618034
G0 X108.725152 Y51.541026
G0 X108.630906 Y51.457937
G0 X108.542063 Y51.369094
G0 X108.458974 Y51.274848
G0 X108.381966 Y51.175571
G0 X108.311344 Y51.071654
G0 X108.247387 Y50.963507
G0 X108.190346 Y50.851559
G0 X108.140447 Y50.736249
G0 X108.097887 Y50.618034
G0 X108.062834 Y50.49738
G0 X108.035425 Y50.374763
G0 X108.015771 Y50.250666
G0 X108.003947 Y50.125581
G0 X108 Y50
G1 F2400 X112 E0.133041
G1 X111.719421 Y50.992708 Z0.216667 E0.034316
G1 X110.985417 Y51.706792 Z0.233333 E0.034065
G1 X110 Y51.95625 Z0.25 E0.033814
G1 X109.029167 Y51.681533 Z0.266667 E0.033563
G1 X108.331097 Y50.963542 Z0.283333 E0.033311
G1 X108.0875 Y50 Z0.3 E0.03306
G1 X108.356356 Y49.051042 Z0.316667 E0.032809
G1 X109.058333 Y48.368985 Z0.333333 E0.032558
G1 X110 Y48.13125 Z0.35 E0.032307
G1 X110.927083 Y48.394245 Z0.366667 E0.032056
G1 X111.593126 Y49.080208 Z0.383333 E0.031805
G1 X111.825 Y50 Z0.4 E0.031554
G1 X111.567867 Y50.905208 Z0.416667 E0.031303
G1 X110.897917 Y51.555237 Z0.433333 E0.031052
G1 X110 Y51.78125 Z0.45 E0.030801
G1 X109.116667 Y51.529978 Z0.466667 E0.03055
G1 X108.482651 Y50.876042 Z0.483333 E0.030299
G1 X108.2625 Y50 Z0.5 E0.030048
G1 X108.50791 Y49.138542 Z0.516667 E0.029797
G1 X109.145833 Y48.52054 Z0.533333 E0.029546
G1 X110 Y48.30625 Z0.55 E0.029295
G1 X110.839583 Y48.545799 Z0.566667 E0.029044
G1 X111.441571 Y49.167708 Z0.583333 E0.028793
G1 X111.65 Y50 Z0.6 E0.028542
G1 X111.416312 Y50.817708 Z0.616667 E0.028291
G1 X110.810417 Y51.403683 Z0.633333 E0.02804
G1 X110 Y51.60625 Z0.65 E0.027789
G1 X109.204167 Y51.378424 Z0.666667 E0.027538
G1 X108.634206 Y50.788542 Z0.683333 E0.027287
G1 X108.4375 Y50 Z0.7 E0.027036
G1 X108.659465 Y49.226042 Z0.716667 E0.026785
G1 X109.233333 Y48.672094 Z0.733333 E0.026534
G1 X110 Y48.48125 Z0.75 E0.026283
G1 X110.752083 Y48.697353 Z0.766667 E0.026032
G1 X111.290017 Y49.255208 Z0.783333 E0.025781
G1 X111.475 Y50 Z0.8 E0.025531
G1 X111.264758 Y50.730208 Z0.816667 E0.02528
G1 X110.722917 Y51.252128 Z0.833333 E0.025029
G1 X110 Y51.43125 Z0.85 E0.024778
G1 X109.291667 Y51.226869 Z0.866667 E0.024527
G1 X108.78576 Y50.701042 Z0.883333 E0.024276
G1 X108.6125 Y50 Z0.9 E0.024025
G1 X108.811019 Y49.313542 Z0.916667 E0.023774
G1 X109.320833 Y48.823649 Z0.933333 E0.023523
G1 X110 Y48.65625 Z0.95 E0.023272
G1 X110.664583 Y48.848908 Z0.966667 E0.023021
G1 X111.138463 Y49.342708 Z0.983333 E0.02277
G1 X111.3 Y50 Z1 E0.022519
G1 X111.113203 Y50.642708 Z1.016667 E0.022268
G1 X110.635417 Y51.100574 Z1.033333 E0.022017
G1 X110 Y51.25625 Z1.05 E0.021766
G1 X109.379167 Y51.075315 Z1.066667 E0.021515
G1 X108.937315 Y50.613542 Z1.083333 E0.021264
G1 X108.7875 Y50 Z1.1 E0.021013
G1 X108.962574 Y49.401042 Z1.116667 E0.020762
G1 X109.408333 Y48.975203 Z1.133333 E0.020511
G1 X110 Y48.83125 Z1.15 E0.020261
G1 X110.577083 Y49.000462 Z1.166667 E0.02001
G1 X110.986908 Y49.430208 Z1.183333 E0.019759
G1 X111.125 Y50 Z1.2 E0.019508
G1 X110.961649 Y50.555208 Z1.216667 E0.019257
G1 X110.547917 Y50.94902 Z1.233333 E0.019006
G1 X110 Y51.08125 Z1.25 E0.018755
G1 X109.466667 Y50.92376 Z1.266667 E0.018504
G1 X109.088869 Y50.526042 Z1.283333 E0.018253
G1 X108.9625 Y50 Z1.3 E0.018003
G1 X109.114128 Y49.488542 Z1.316667 E0.017752
G1 X109.495833 Y49.126758 Z1.333333 E0.017501
G1 X110 Y49.00625 Z1.35 E0.01725
G1 X110.489583 Y49.152017 Z1.366667 E0.016999
G1 X110.835354 Y49.517708 Z1.383333 E0.016748
G1 X110.95 Y50 Z1.4 E0.016497
G1 X110.810095 Y50.467708 Z1.416667 E0.016247
G1 X110.460417 Y50.797465 Z1.433333 E0.015996
G1 X110 Y50.90625 Z1.45 E0.015745
G1 X109.554167 Y50.772206 Z1.466667 E0.015494
G1 X109.240424 Y50.438542 Z1.483333 E0.015243
G1 X109.1375 Y50 Z1.5 E0.014993
G1 X109.265683 Y49.576042 Z1.516667 E0.014742
G1 X109.583333 Y49.278312 Z1.533333 E0.014491
G1 X110 Y49.18125 Z1.55 E0.01424
G1 X110.402083 Y49.303571 Z1.566667 E0.013989
G1 X110.683799 Y49.605208 Z1.583333 E0.013739
G1 X110.775 Y50 Z1.6 E0.013488
G1 X110.65854 Y50.380208 Z1.616667 E0.013237
G1 X110.372917 Y50.645911 Z1.633333 E0.012987
G1 X110 Y50.73125 Z1.65 E0.012736
G1 X109.641667 Y50.620652 Z1.666667 E0.012485
G1 X109.391978 Y50.351042 Z1.683333 E0.012235
G1 X109.3125 Y50 Z1.7 E0.011984
G1 X109.417237 Y49.663542 Z1.716667 E0.011733
G1 X109.670833 Y49.429867 Z1.733333 E0.011483
G1 X110 Y49.35625 Z1.75 E0.011232
G1 X110.314583 Y49.455126 Z1.766667 E0.010982
G1 X110.532245 Y49.692708 Z1.783333 E0.010731
G1 X110.6 Y50 Z1.8 E0.010481
G1 X110.506986 Y50.292708 Z1.816667 E0.01023
G1 X110.285417 Y50.494356 Z1.833333 E0.00998
G1 X110 Y50.55625 Z1.85 E0.009729
G1 X109.729167 Y50.469097 Z1.866667 E0.009479
G1 X109.543532 Y50.263542 Z1.883333 E0.009229
G1 X109.4875 Y50 Z1.9 E0.008978
G1 X109.568792 Y49.751042 Z1.916667 E0.008728
G1 X109.758333 Y49.581421 Z1.933333 E0.008478
G1 X110 Y49.53125 Z1.95 E0.008228
G1 X110.227083 Y49.60668 Z1.966667 E0.007978
G1 X110.38069 Y49.780208 Z1.983333 E0.007728
G1 X110.425 Y50 Z2 E0.007478
G1 X110.355431 Y50.205208 Z2.016667 E0.007228
G1 X110.197917 Y50.342802 Z2.033333 E0.006978
G1 X110 Y50.38125 Z2.05 E0.006729
G1 X109.816667 Y50.317543 Z2.066667 E0.006479
G1 X109.695087 Y50.176042 Z2.083333 E0.00623
G1 X109.6625 Y50 Z2.1 E0.00598
G1 X109.720346 Y49.838542 Z2.116667 E0.005731
G1 X109.845833 Y49.732976 Z2.133333 E0.005482
G1 X110 Y49.70625 Z2.15 E0.005234
G1 X110.139583 Y49.758235 Z2.166667 E0.004985
G1 X110.229136 Y49.867708 Z2.183333 E0.004737
G1 X110.25 Y50 Z2.2 E0.004489
G1 X70 E1.33872