; Time to print!!!!!
; GCode created with FullControl - tell us what you're printing!
; info@fullcontrol.xyz or tag FullControlXYZ on Twitter/Instagram/LinkedIn/Reddit/TikTok
M83 ; relative extrusion
M140 S50 ; set bed temp and continue
M104 S210 ; set hotend temp and continue
M190 S50 ; set bed temp and wait
M109 S210 ; set hotend temp and wait
M106 S255 ; set fan speed
G0 F4800 X68 Y50 Z0.2
G1 F2400 X68.003947 Y49.874419 E0.004179
G1 X68.015771 Y49.749334 E0.004179
G1 X68.035425 Y49.625237 E0.004179
G1 X68.062834 Y49.50262 E0.004179
G1 X68.097887 Y49.381966 E0.004179
G1 X68.140447 Y49.263751 E0.004179
G1 X68.190346 Y49.148441 E0.004179
G1 X68.247387 Y49.036493 E0.004179
G1 X68.311344 Y48.928346 E0.004179
G1 X68.381966 Y48.824429 E0.004179
G1 X68.458974 Y48.725152 E0.004179
G1 X68.542063 Y48.630906 E0.004179
G1 X68.630906 Y48.542063 E0.004179
G1 X68.725152 Y48.458974 E0.004179
G1 X68.824429 Y48.381966 E0.004179
G1 X68.928346 Y48.311344 E0.004179
G1 X69.036493 Y48.247387 E0.004179
G1 X69.148441 Y48.190346 E0.004179
G1 X69.263751 Y48.140447 E0.004179
G1 X69.381966 Y48.097887 E0.004179
G1 X69.50262 Y48.062834 E0.004179
G1 X69.625237 Y48.035425 E0.004179
G1 X69.749334 Y48.015771 E0.004179
G1 X69.874419 Y48.003947 E0.004179
G1 X70 Y48 E0.004179
G1 X70.125581 Y48.003947 E0.004179
G1 X70.250666 Y48.015771 E0.004179
G1 X70.374763 Y48.035425 E0.004179
G1 X70.49738 Y48.062834 E0.004179
G1 X70.618034 Y48.097887 E0.004179
G1 X70.736249 Y48.140447 E0.004179
G1 X70.851559 Y48.190346 E0.004179
G1 X70.963507 Y48.247387 E0.004179
G1 X71.071654 Y48.311344 E0.004179
G1 X71.175571 Y48.381966 E0.004179
G1 X71.274848 Y48.458974 E0.004179
G1 X71.369094 Y48.542063 E0.004179
G1 X71.457937 Y48.630906 E0.004179
G1 X71.541026 Y48.725152 E0.004179
G1 X71.618034 Y48.824429 E0.004179
G1 X71.688656 Y48.928346 E0.004179
G1 X71.752613 Y49.036493 E0.004179
G1 X71.809654 Y49.148441 E0.004179
G1 X71.859553 Y49.263751 E0.004179
G1 X71.902113 Y49.381966 E0.004179
G1 X71.937166 Y49.50262 E0.004179
G1 X71.964575 Y49.625237 E0.004179
G1 X71.984229 Y49.749334 E0.004179
G1 X71.996053 Y49.874419 E0.004179
G1 X72 Y50 E0.004179
G1 X71.996053 Y50.125581 E0.004179
G1 X71.984229 Y50.250666 E0.004179
G1 X71.964575 Y50.374763 E0.004179
G1 X71.937166 Y50.49738 E0.004179
G1 X71.902113 Y50.618034 E0.004179
G1 X71.859553 Y50.736249 E0.004179
G1 X71.809654 Y50.851559 E0.004179
G1 X71.752613 Y50.963507 E0.004179
G1 X71.688656 Y51.071654 E0.004179
G1 X71.618034 Y51.175571 E0.004179
G1 X71.541026 Y51.274848 E0.004179
G1 X71.457937 Y51.369094 E0.004179
G1 X71.369094 Y51.457937 E0.004179
G1 X71.274848 Y51.541026 E0.004179
G1 X71.175571 Y51.618034 E0.004179
G1 X71.071654 Y51.688656 E0.004179
G1 X70.963507 Y51.752613 E0.004179
G1 X70.851559 Y51.809654 E0.004179
G1 X70.736249 Y51.859553 E0.004179
G1 X70.618034 Y51.902113 E0.004179
G1 X70.49738 Y51.937166 E0.004179
G1 X70.374763 Y51.964575 E0.004179
G1 X70.250666 Y51.984229 E0.004179
G1 X70.125581 Y51.996053 E0.004179
G1 X70 Y52 E0.004179
G1 X69.874419 Y51.996053 E0.004179
G1 X69.749334 Y51.984229 E0.004179
G1 X69.625237 Y51.964575 E0.004179
G1 X69.50262 Y51.937166 E0.004179
G1 X69.381966 Y51.902113 E0.004179
G1 X69.263751 Y51.859553 E0.004179
G1 X69.148441 Y51.809654 E0.004179
G1 X69.036493 Y51.752613 E0.004179
G1 X68.928346 Y51.688656 E0.004179
G1 X68.824429 Y51.618034 E0.004179
G1 X68.725152 Y51.541026 E0.004179
G1 X68.630906 Y51.457937 E0.004179
G1 X68.542063 Y51.369094 E0.004179
G1 X68.458974 Y51.274848 E0.004179
G1 X68.381966 Y51.175571 E0.004179
G1 X68.311344 Y51.071654 E0.004179
G1 X68.247387 Y50.963507 E0.004179
G1 X68.190346 Y50.851559 E0.004179
G1 X68.140447 Y50.736249 E0.004179
G1 X68.097887 Y50.618034 E0.004179
G1 X68.062834 Y50.49738 E0.004179
G1 X68.035425 Y50.374763 E0.004179
G1 X68.015771 Y50.250666 E0.004179
G1 X68.003947 Y50.125581 E0.004179
G1 X68 Y50 E0.004179
G1 X72 E0.133041
G1 X71.721225 Y50.99375 Z0.216667 E0.034333
G1 X70.9875 Y51.7104 Z0.233333 E0.034117
G1 X70 Y51.9625 Z0.25 E0.033902
G1 X69.025 Y51.68875 Z0.266667 E0.033687
G1 X68.322076 Y50.96875 Z0.283333 E0.033472
G1 X68.075 Y50 Z0.3 E0.033257
G1 X68.343726 Y49.04375 Z0.316667 E0.033042
G1 X69.05 Y48.354552 Z0.333333 E0.032826
G1 X70 Y48.1125 Z0.35 E0.032611
G1 X70.9375 Y48.376202 Z0.366667 E0.032396
G1 X71.612972 Y49.06875 Z0.383333 E0.032181
G1 X71.85 Y50 Z0.4 E0.031966
G1 X71.591322 Y50.91875 Z0.416667 E0.031751
G1 X70.9125 Y51.580496 Z0.433333 E0.031536
G1 X70 Y51.8125 Z0.45 E0.03132
G1 X69.1 Y51.558846 Z0.466667 E0.031105
G1 X68.45198 Y50.89375 Z0.483333 E0.03089
G1 X68.225 Y50 Z0.5 E0.030675
G1 X68.47363 Y49.11875 Z0.516667 E0.03046
G1 X69.125 Y48.484456 Z0.533333 E0.030245
G1 X70 Y48.2625 Z0.55 E0.030029
G1 X70.8625 Y48.506106 Z0.566667 E0.029814
G1 X71.483069 Y49.14375 Z0.583333 E0.029599
G1 X71.7 Y50 Z0.6 E0.029384
G1 X71.461418 Y50.84375 Z0.616667 E0.029169
G1 X70.8375 Y51.450593 Z0.633333 E0.028954
G1 X70 Y51.6625 Z0.65 E0.028739
G1 X69.175 Y51.428942 Z0.666667 E0.028523
G1 X68.581883 Y50.81875 Z0.683333 E0.028308
G1 X68.375 Y50 Z0.7 E0.028093
G1 X68.603534 Y49.19375 Z0.716667 E0.027878
G1 X69.2 Y48.614359 Z0.733333 E0.027663
G1 X70 Y48.4125 Z0.75 E0.027448
G1 X70.7875 Y48.63601 Z0.766667 E0.027233
G1 X71.353165 Y49.21875 Z0.783333 E0.027017
G1 X71.55 Y50 Z0.8 E0.026802
G1 X71.331514 Y50.76875 Z0.816667 E0.026587
G1 X70.7625 Y51.320689 Z0.833333 E0.026372
G1 X70 Y51.5125 Z0.85 E0.026157
G1 X69.25 Y51.299038 Z0.866667 E0.025942
G1 X68.711787 Y50.74375 Z0.883333 E0.025727
G1 X68.525 Y50 Z0.9 E0.025511
G1 X68.733438 Y49.26875 Z0.916667 E0.025296
G1 X69.275 Y48.744263 Z0.933333 E0.025081
G1 X70 Y48.5625 Z0.95 E0.024866
G1 X70.7125 Y48.765914 Z0.966667 E0.024651
G1 X71.223261 Y49.29375 Z0.983333 E0.024436
G1 X71.4 Y50 Z1 E0.024221
G1 X71.20161 Y50.69375 Z1.016667 E0.024006
G1 X70.6875 Y51.190785 Z1.033333 E0.02379
G1 X70 Y51.3625 Z1.05 E0.023575
G1 X69.325 Y51.169134 Z1.066667 E0.02336
G1 X68.841691 Y50.66875 Z1.083333 E0.023145
G1 X68.675 Y50 Z1.1 E0.02293
G1 X68.863342 Y49.34375 Z1.116667 E0.022715
G1 X69.35 Y48.874167 Z1.133333 E0.0225
G1 X70 Y48.7125 Z1.15 E0.022285
G1 X70.6375 Y48.895818 Z1.166667 E0.02207
G1 X71.093357 Y49.36875 Z1.183333 E0.021854
G1 X71.25 Y50 Z1.2 E0.021639
G1 X71.071706 Y50.61875 Z1.216667 E0.021424
G1 X70.6125 Y51.060881 Z1.233333 E0.021209
G1 X70 Y51.2125 Z1.25 E0.020994
G1 X69.4 Y51.03923 Z1.266667 E0.020779
G1 X68.971595 Y50.59375 Z1.283333 E0.020564
G1 X68.825 Y50 Z1.3 E0.020349
G1 X68.993245 Y49.41875 Z1.316667 E0.020134
G1 X69.425 Y49.004071 Z1.333333 E0.019919
G1 X70 Y48.8625 Z1.35 E0.019704
G1 X70.5625 Y49.025721 Z1.366667 E0.019488
G1 X70.963453 Y49.44375 Z1.383333 E0.019273
G1 X71.1 Y50 Z1.4 E0.019058
G1 X70.941803 Y50.54375 Z1.416667 E0.018843
G1 X70.5375 Y50.930977 Z1.433333 E0.018628
G1 X70 Y51.0625 Z1.45 E0.018413
G1 X69.475 Y50.909327 Z1.466667 E0.018198
G1 X69.101499 Y50.51875 Z1.483333 E0.017983
G1 X68.975 Y50 Z1.5 E0.017768
G1 X69.123149 Y49.49375 Z1.516667 E0.017553
G1 X69.5 Y49.133975 Z1.533333 E0.017338
G1 X70 Y49.0125 Z1.55 E0.017123
G1 X70.4875 Y49.155625 Z1.566667 E0.016908
G1 X70.833549 Y49.51875 Z1.583333 E0.016693
G1 X70.95 Y50 Z1.6 E0.016478
G1 X70.811899 Y50.46875 Z1.616667 E0.016263
G1 X70.4625 Y50.801073 Z1.633333 E0.016048
G1 X70 Y50.9125 Z1.65 E0.015833
G1 X69.55 Y50.779423 Z1.666667 E0.015618
G1 X69.231402 Y50.44375 Z1.683333 E0.015403
G1 X69.125 Y50 Z1.7 E0.015188
G1 X69.253053 Y49.56875 Z1.716667 E0.014973
G1 X69.575 Y49.263878 Z1.733333 E0.014758
G1 X70 Y49.1625 Z1.75 E0.014543
G1 X70.4125 Y49.285529 Z1.766667 E0.014328
G1 X70.703646 Y49.59375 Z1.783333 E0.014113
G1 X70.8 Y50 Z1.8 E0.013898
G1 X70.681995 Y50.39375 Z1.816667 E0.013683
G1 X70.3875 Y50.67117 Z1.833333 E0.013468
G1 X70 Y50.7625 Z1.85 E0.013253
G1 X69.625 Y50.649519 Z1.866667 E0.013038
G1 X69.361306 Y50.36875 Z1.883333 E0.012823
G1 X69.275 Y50 Z1.9 E0.012608
G1 X69.382957 Y49.64375 Z1.916667 E0.012393
G1 X69.65 Y49.393782 Z1.933333 E0.012179
G1 X70 Y49.3125 Z1.95 E0.011964
G1 X70.3375 Y49.415433 Z1.966667 E0.011749
G1 X70.573742 Y49.66875 Z1.983333 E0.011534
G1 X70.65 Y50 Z2 E0.011319
G1 X70.552091 Y50.31875 Z2.016667 E0.011104
G1 X70.3125 Y50.541266 Z2.033333 E0.01089
G1 X70 Y50.6125 Z2.05 E0.010675
G1 X69.7 Y50.519615 Z2.066667 E0.01046
G1 X69.49121 Y50.29375 Z2.083333 E0.010245
G1 X69.425 Y50 Z2.1 E0.010031
G1 X69.512861 Y49.71875 Z2.116667 E0.009816
G1 X69.725 Y49.523686 Z2.133333 E0.009601
G1 X70 Y49.4625 Z2.15 E0.009387
G1 X70.2625 Y49.545337 Z2.166667 E0.009172
G1 X70.443838 Y49.74375 Z2.183333 E0.008957
G1 X70.5 Y50 Z2.2 E0.008743
G0 F4800 X78 Z0.2
G0 X78.003947 Y49.874419
G0 X78.015771 Y49.749334
G0 X78.035425 Y49.625237
G0 X78.062834 Y49.50262
G0 X78.097887 Y49.381966
G0 X78.140447 Y49.263751
G0 X78.190346 Y49.148441
G0 X78.247387 Y49.036493
G0 X78.311344 Y48.928346
G0 X78.381966 Y48.824429
G0 X78.458974 Y48.725152
G0 X78.542063 Y48.630906
G0 X78.630906 Y48.542063
G0 X78.725152 Y48.458974
G0 X78.824429 Y48.381966
G0 X78.928346 Y48.311344
G0 X79.036493 Y48.247387
G0 X79.148441 Y48.190346
G0 X79.263751 Y48.140447
G0 X79.381966 Y48.097887
G0 X79.50262 Y48.062834
G0 X79.625237 Y48.035425
G0 X79.749334 Y48.015771
G0 X79.874419 Y48.003947
G0 X80 Y48
G0 X80.125581 Y48.003947
G0 X80.250666 Y48.015771
G0 X80.374763 Y48.035425
G0 X80.49738 Y48.062834
G0 X80.618034 Y48.097887
G0 X80.736249 Y48.140447
G0 X80.851559 Y48.190346
G0 X80.963507 Y48.247387
G0 X81.071654 Y48.311344
G0 X81.175571 Y48.381966
G0 X81.274848 Y48.458974
G0 X81.369094 Y48.542063
G0 X81.457937 Y48.630906
G0 X81.541026 Y48.725152
G0 X81.618034 Y48.824429
G0 X81.688656 Y48.928346
G0 X81.752613 Y49.036493
G0 X81.809654 Y49.148441
G0 X81.859553 Y49.263751
G0 X81.902113 Y49.381966
G0 X81.937166 Y49.50262
G0 X81.964575 Y49.625237
G0 X81.984229 Y49.749334
G0 X81.996053 Y49.874419
G0 X82 Y50
G0 X81.996053 Y50.125581
G0 X81.984229 Y50.250666
G0 X81.964575 Y50.374763
G0 X81.937166 Y50.49738
G0 X81.902113 Y50.618034
G0 X81.859553 Y50.736249
G0 X81.809654 Y50.851559
G0 X81.752613 Y50.963507
G0 X81.688656 Y51.071654
G0 X81.618034 Y51.175571
G0 X81.541026 Y51.274848
G0 X81.457937 Y51.369094
G0 X81.369094 Y51.457937
G0 X81.274848 Y51.541026
G0 X81.175571 Y51.618034
G0 X81.071654 Y51.688656
G0 X80.963507 Y51.752613
G0 X80.851559 Y51.809654
G0 X80.736249 Y51.859553
G0 X80.618034 Y51.902113
G0 X80.49738 Y51.937166
G0 X80.374763 Y51.964575
G0 X80.250666 Y51.984229
G0 X80.125581 Y51.996053
G0 X80 Y52
G0 X79.874419 Y51.996053
G0 X79.749334 Y51.984229
G0 X79.625237 Y51.964575
G0 X79.50262 Y51.937166
G0 X79.381966 Y51.902113
G0 X79.263751 Y51.859553
G0 X79.148441 Y51.809654
G0 X79.036493 Y51.752613
G0 X78.928346 Y51.688656
G0 X78.824429 Y51.618034
G0 X78.725152 Y51.541026
G0 X78.630906 Y51.457937
G0 X78.542063 Y51.369094
G0 X78.458974 Y51.274848
G0 X78.381966 Y51.175571
G0 X78.311344 Y51.071654
G0 X78.247387 Y50.963507
G0 X78.190346 Y50.851559
G0 X78.140447 Y50.736249
G0 X78.097887 Y50.618034
G0 X78.062834 Y50.49738
G0 X78.035425 Y50.374763
G0 X78.015771 Y50.250666
G0 X78.003947 Y50.125581
G0 X78 Y50
G1 F2400 X82 E0.133041
G1 X81.721225 Y50.99375 Z0.216667 E0.034333
G1 X80.9875 Y51.7104 Z0.233333 E0.034117
G1 X80 Y51.9625 Z0.25 E0.033902
G1 X79.025 Y51.68875 Z0.266667 E0.033687
G1 X78.322076 Y50.96875 Z0.283333 E0.033472
G1 X78.075 Y50 Z0.3 E0.033257
G1 X78.343726 Y49.04375 Z0.316667 E0.033042
G1 X79.05 Y48.354552 Z0.333333 E0.032826
G1 X80 Y48.1125 Z0.35 E0.032611
G1 X80.9375 Y48.376202 Z0.366667 E0.032396
G1 X81.612972 Y49.06875 Z0.383333 E0.032181
G1 X81.85 Y50 Z0.4 E0.031966
G1 X81.591322 Y50.91875 Z0.416667 E0.031751
G1 X80.9125 Y51.580496 Z0.433333 E0.031536
G1 X80 Y51.8125 Z0.45 E0.03132
G1 X79.1 Y51.558846 Z0.466667 E0.031105
G1 X78.45198 Y50.89375 Z0.483333 E0.03089
G1 X78.225 Y50 Z0.5 E0.030675
G1 X78.47363 Y49.11875 Z0.516667 E0.03046
G1 X79.125 Y48.484456 Z0.533333 E0.030245
G1 X80 Y48.2625 Z0.55 E0.030029
G1 X80.8625 Y48.506106 Z0.566667 E0.029814
G1 X81.483069 Y49.14375 Z0.583333 E0.029599
G1 X81.7 Y50 Z0.6 E0.029384
G1 X81.461418 Y50.84375 Z0.616667 E0.029169
G1 X80.8375 Y51.450593 Z0.633333 E0.028954
G1 X80 Y51.6625 Z0.65 E0.028739
G1 X79.175 Y51.428942 Z0.666667 E0.028523
G1 X78.581883 Y50.81875 Z0.683333 E0.028308
G1 X78.375 Y50 Z0.7 E0.028093
G1 X78.603534 Y49.19375 Z0.716667 E0.027878
G1 X79.2 Y48.614359 Z0.733333 E0.027663
G1 X80 Y48.4125 Z0.75 E0.027448
G1 X80.7875 Y48.63601 Z0.766667 E0.027233
G1 X81.353165 Y49.21875 Z0.783333 E0.027017
G1 X81.55 Y50 Z0.8 E0.026802
G1 X81.331514 Y50.76875 Z0.816667 E0.026587
G1 X80.7625 Y51.320689 Z0.833333 E0.026372
G1 X80 Y51.5125 Z0.85 E0.026157
G1 X79.25 Y51.299038 Z0.866667 E0.025942
G1 X78.711787 Y50.74375 Z0.883333 E0.025727
G1 X78.525 Y50 Z0.9 E0.025511
G1 X78.733438 Y49.26875 Z0.916667 E0.025296
G1 X79.275 Y48.744263 Z0.933333 E0.025081
G1 X80 Y48.5625 Z0.95 E0.024866
G1 X80.7125 Y48.765914 Z0.966667 E0.024651
G1 X81.223261 Y49.29375 Z0.983333 E0.024436
G1 X81.4 Y50 Z1 E0.024221
G1 X81.20161 Y50.69375 Z1.016667 E0.024006
G1 X80.6875 Y51.190785 Z1.033333 E0.02379
G1 X80 Y51.3625 Z1.05 E0.023575
G1 X79.325 Y51.169134 Z1.066667 E0.02336
G1 X78.841691 Y50.66875 Z1.083333 E0.023145
G1 X78.675 Y50 Z1.1 E0.02293
G1 X78.863342 Y49.34375 Z1.116667 E0.022715
G1 X79.35 Y48.874167 Z1.133333 E0.0225
G1 X80 Y48.7125 Z1.15 E0.022285
G1 X80.6375 Y48.895818 Z1.166667 E0.02207
G1 X81.093357 Y49.36875 Z1.183333 E0.021854
G1 X81.25 Y50 Z1.2 E0.021639
G1 X81.071706 Y50.61875 Z1.216667 E0.021424
G1 X80.6125 Y51.060881 Z1.233333 E0.021209
G1 X80 Y51.2125 Z1.25 E0.020994
G1 X79.4 Y51.03923 Z1.266667 E0.020779
G1 X78.971595 Y50.59375 Z1.283333 E0.020564
G1 X78.825 Y50 Z1.3 E0.020349
G1 X78.993245 Y49.41875 Z1.316667 E0.020134
G1 X79.425 Y49.004071 Z1.333333 E0.019919
G1 X80 Y48.8625 Z1.35 E0.019704
G1 X80.5625 Y49.025721 Z1.366667 E0.019488
G1 X80.963453 Y49.44375 Z1.383333 E0.019273
G1 X81.1 Y50 Z1.4 E0.019058
G1 X80.941803 Y50.54375 Z1.416667 E0.018843
G1 X80.5375 Y50.930977 Z1.433333 E0.018628
G1 X80 Y51.0625 Z1.45 E0.018413
G1 X79.475 Y50.909327 Z1.466667 E0.018198
G1 X79.101499 Y50.51875 Z1.483333 E0.017983
G1 X78.975 Y50 Z1.5 E0.017768
G1 X79.123149 Y49.49375 Z1.516667 E0.017553
G1 X79.5 Y49.133975 Z1.533333 E0.017338
G1 X80 Y49.0125 Z1.55 E0.017123
G1 X80.4875 Y49.155625 Z1.566667 E0.016908
G1 X80.833549 Y49.51875 Z1.583333 E0.016693
G1 X80.95 Y50 Z1.6 E0.016478
G1 X80.811899 Y50.46875 Z1.616667 E0.016263
G1 X80.4625 Y50.801073 Z1.633333 E0.016048
G1 X80 Y50.9125 Z1.65 E0.015833
G1 X79.55 Y50.779423 Z1.666667 E0.015618
G1 X79.231402 Y50.44375 Z1.683333 E0.015403
G1 X79.125 Y50 Z1.7 E0.015188
G1 X79.253053 Y49.56875 Z1.716667 E0.014973
G1 X79.575 Y49.263878 Z1.733333 E0.014758
G1 X80 Y49.1625 Z1.75 E0.014543
G1 X80.4125 Y49.285529 Z1.766667 E0.014328
G1 X80.703646 Y49.59375 Z1.783333 E0.014113
G1 X80.8 Y50 Z1.8 E0.013898
G1 X80.681995 Y50.39375 Z1.816667 E0.013683
G1 X80.3875 Y50.67117 Z1.833333 E0.013468
G1 X80 Y50.7625 Z1.85 E0.013253
G1 X79.625 Y50.649519 Z1.866667 E0.013038
G1 X79.361306 Y50.36875 Z1.883333 E0.012823
G1 X79.275 Y50 Z1.9 E0.012608
G1 X79.382957 Y49.64375 Z1.916667 E0.012393
G1 X79.65 Y49.393782 Z1.933333 E0.012179
G1 X80 Y49.3125 Z1.95 E0.011964
G1 X80.3375 Y49.415433 Z1.966667 E0.011749
G1 X80.573742 Y49.66875 Z1.983333 E0.011534
G1 X80.65 Y50 Z2 E0.011319
G1 X80.552091 Y50.31875 Z2.016667 E0.011104
G1 X80.3125 Y50.541266 Z2.033333 E0.01089
G1 X80 Y50.6125 Z2.05 E0.010675
G1 X79.7 Y50.519615 Z2.066667 E0.01046
G1 X79.49121 Y50.29375 Z2.083333 E0.010245
G1 X79.425 Y50 Z2.1 E0.010031
G1 X79.512861 Y49.71875 Z2.116667 E0.009816
G1 X79.725 Y49.523686 Z2.133333 E0.009601
G1 X80 Y49.4625 Z2.15 E0.009387
G1 X80.2625 Y49.545337 Z2.166667 E0.009172
G1 X80.443838 Y49.74375 Z2.183333 E0.008957
G1 X80.5 Y50 Z2.2 E0.008743
G1 X70 E0.349231