; Time to print!!!!!
; GCode created with FullControl - tell us what you're printing!
; info@fullcontrol.xyz or tag FullControlXYZ on Twitter/Instagram/LinkedIn/Reddit/TikTok
M83 ; relative extrusion
M140 S50 ; set bed temp and continue
M104 S210 ; set hotend temp and continue
M190 S50 ; set bed temp and wait
M109 S210 ; set hotend temp and wait
M106 S255 ; set fan speed
G0 F4800 X100 Y100 Z0.125
G1 F2400 Y140 Z-0.125 E2.993471
G1 X118.588927 Y135.418241 E1.432741
G1 X132.919355 Y122.72259 E1.432741
G1 X139.708355 Y104.821467 E1.432741
G1 X137.40065 Y85.815805 E1.432741
G1 X126.524906 Y70.05957 E1.432741
G1 X109.572627 Y61.162327 E1.432741
G1 X90.427373 E1.432741
G1 X73.475094 Y70.05957 E1.432741
G1 X62.59935 Y85.815805 E1.432741
G1 X60.291645 Y104.821467 E1.432741
G1 X67.080645 Y122.72259 E1.432741
G1 X81.411073 Y135.418241 E1.432741
G1 X100 Y140 E1.432741
G1 Y139.5 Z0.125 E0.041834
G1 X132.507863 Y122.438557 E2.747438
G1 X136.933142 Y85.993107 E2.747438
G1 X109.452969 Y61.647798 E2.747438
G1 X73.806655 Y70.433825 E2.747438
G1 X60.787999 Y104.761199 E2.747438
G1 X81.643435 Y134.975513 E2.747438
G1 X118.356565 E2.747438
G1 X139.212001 Y104.761199 E2.747438
G1 X126.193345 Y70.433825 E2.747438
G1 X90.547031 Y61.647798 E2.747438
G1 X63.066858 Y85.993107 E2.747438
G1 X67.492137 Y122.438557 E2.747438
G1 X100 Y139.5 E2.747438
G1 Y139 Z0.375 E0.041834
G1 X138.715646 Y104.700931 E3.870749
G1 X109.333311 Y62.133269 E3.870749
G1 X63.534367 Y86.170409 E3.870749
G1 X81.875796 Y134.532785 E3.870749
G1 X132.096371 Y122.154525 E3.870749
G1 X125.861784 Y70.808081 E3.870749
G1 X74.138216 E3.870749
G1 X67.903629 Y122.154525 E3.870749
G1 X118.124204 Y134.532785 E3.870749
G1 X136.465633 Y86.170409 E3.870749
G1 X90.666689 Y62.133269 E3.870749
G1 X61.284354 Y104.700931 E3.870749
G1 X100 Y139 E3.870749